SL-8 R/B                
1 21088U 91006B   26089.63705897  .00000126  00000+0  11127-3 0  9998
2 21088  82.9442 154.4723 0021724 339.9923 184.0405 13.77497603766952
OKEAN-3                 
1 21397U 91039A   26089.62420692  .00003516  00000+0  24607-3 0  9996
2 21397  82.5159 316.5594 0012403 259.4897 100.4932 15.04926327868180
COSMOS 2151             
1 21422U 91042A   26089.56100526  .00002752  00000+0  21782-3 0  9995
2 21422  82.4947  63.5366 0012160 357.6658   2.4507 15.00196826866327
SL-14 R/B               
1 21423U 91042B   26089.35298325  .00000594  00000+0  72021-4 0  9993
2 21423  82.4957 200.8101 0017341 168.5195 191.6418 14.81850783856130
ERS-1                   
1 21574U 91050A   26089.48102133  .00000399  00000+0  14195-3 0  9994
2 21574  98.7864 108.2372 0032757 139.1768 221.1881 14.39465209818727
ARIANE 40 R/B           
1 21610U 91050F   26089.55185603  .00000371  00000+0  12341-3 0  9997
2 21610  98.1968 141.0011 0003449  33.5809 326.5600 14.42908773822008
INTERCOSMOS 25          
1 21819U 91086A   26089.54196372  .00002194  00000+0  42392-3 0  9995
2 21819  82.6007 297.4016 1486463  72.0048 303.7025 12.12070594499214
SL-8 R/B                
1 21876U 92008B   26089.59391580  .00000016  00000+0  91364-7 0  9994
2 21876  82.9236 252.2235 0035914  76.9682 355.6542 13.75969614712299
SL-8 R/B                
1 21938U 92020B   26089.57817073  .00000038  00000+0  24143-4 0  9997
2 21938  82.9300 138.2521 0027822 237.7417 231.8788 13.75550514704005
USA 81                  
1 21949U 92023A   26089.54621514  .00000215  00000+0  72329-4 0  9998
2 21949  85.0045 119.4045 0001707  68.2431 291.8943 14.32374727 97778
COSMOS 2219             
1 22219U 92076A   26089.38871905 -.00000218  00000+0 -89924-4 0  9994
2 22219  71.0619 334.8021 0017840 176.4391 183.6861 14.14090327721301
SL-16 R/B               
1 22220U 92076B   26089.53138860 -.00000178  00000+0 -64994-4 0  9994
2 22220  70.9994 144.4745 0010745  57.4885  44.0469 14.16863569724785
COSMOS 2221             
1 22236U 92080A   26089.56953547  .00002804  00000+0  24541-3 0  9995
2 22236  82.5006 259.0741 0015543 120.1298 240.1467 14.96289798783912
SL-16 R/B               
1 22285U 92093B   26089.58716848  .00000135  00000+0  93682-4 0  9994
2 22285  71.0228 320.3990 0006532 273.4776  86.5599 14.15455452716113
COSMOS 2228             
1 22286U 92094A   26089.63876197  .00004001  00000+0  34194-3 0  9994
2 22286  82.5190 217.2523 0016964 228.4403 131.5366 14.97301550779191
SL-16 R/B               
1 22566U 93016B   26089.55900255  .00000105  00000+0  78509-4 0  9994
2 22566  71.0075 171.3528 0012346 287.2063  72.7708 14.15305835705125
COSMOS 2242             
1 22626U 93024A   26089.49631603  .00003138  00000+0  27251-3 0  9997
2 22626  82.5166 246.8090 0015177 232.3282 127.6564 14.96639464783506
