[{"OBJECT_NAME":"SL-8 R/B","OBJECT_ID":"1991-006B","EPOCH":"2026-03-30T15:17:21.895008","MEAN_MOTION":13.77497603,"ECCENTRICITY":0.00217249,"INCLINATION":82.9442,"RA_OF_ASC_NODE":154.4723,"ARG_OF_PERICENTER":339.9923,"MEAN_ANOMALY":184.0405,"EPHEMERIS_TYPE":0,"CLASSIFICATION_TYPE":"U","NORAD_CAT_ID":21088,"ELEMENT_SET_NO":999,"REV_AT_EPOCH":76695,"BSTAR":0.00011127093,"MEAN_MOTION_DOT":1.26e-6,"MEAN_MOTION_DDOT":0},{"OBJECT_NAME":"OKEAN-3","OBJECT_ID":"1991-039A","EPOCH":"2026-03-30T14:58:51.477888","MEAN_MOTION":15.04926327,"ECCENTRICITY":0.00124034,"INCLINATION":82.5159,"RA_OF_ASC_NODE":316.5594,"ARG_OF_PERICENTER":259.4897,"MEAN_ANOMALY":100.4932,"EPHEMERIS_TYPE":0,"CLASSIFICATION_TYPE":"U","NORAD_CAT_ID":21397,"ELEMENT_SET_NO":999,"REV_AT_EPOCH":86818,"BSTAR":0.00024607167,"MEAN_MOTION_DOT":3.516e-5,"MEAN_MOTION_DDOT":0},{"OBJECT_NAME":"COSMOS 2151","OBJECT_ID":"1991-042A","EPOCH":"2026-03-30T13:27:50.854464","MEAN_MOTION":15.00196826,"ECCENTRICITY":0.00121605,"INCLINATION":82.4947,"RA_OF_ASC_NODE":63.5366,"ARG_OF_PERICENTER":357.6658,"MEAN_ANOMALY":2.4507,"EPHEMERIS_TYPE":0,"CLASSIFICATION_TYPE":"U","NORAD_CAT_ID":21422,"ELEMENT_SET_NO":999,"REV_AT_EPOCH":86632,"BSTAR":0.00021782235,"MEAN_MOTION_DOT":2.752e-5,"MEAN_MOTION_DDOT":0},{"OBJECT_NAME":"SL-14 R/B","OBJECT_ID":"1991-042B","EPOCH":"2026-03-30T08:28:17.752800","MEAN_MOTION":14.81850783,"ECCENTRICITY":0.0017341,"INCLINATION":82.4957,"RA_OF_ASC_NODE":200.8101,"ARG_OF_PERICENTER":168.5195,"MEAN_ANOMALY":191.6418,"EPHEMERIS_TYPE":0,"CLASSIFICATION_TYPE":"U","NORAD_CAT_ID":21423,"ELEMENT_SET_NO":999,"REV_AT_EPOCH":85613,"BSTAR":7.2021e-5,"MEAN_MOTION_DOT":5.94e-6,"MEAN_MOTION_DDOT":0},{"OBJECT_NAME":"ERS-1","OBJECT_ID":"1991-050A","EPOCH":"2026-03-30T11:32:40.242912","MEAN_MOTION":14.39465209,"ECCENTRICITY":0.00327572,"INCLINATION":98.7864,"RA_OF_ASC_NODE":108.2372,"ARG_OF_PERICENTER":139.1768,"MEAN_ANOMALY":221.1881,"EPHEMERIS_TYPE":0,"CLASSIFICATION_TYPE":"U","NORAD_CAT_ID":21574,"ELEMENT_SET_NO":999,"REV_AT_EPOCH":81872,"BSTAR":0.0001419527,"MEAN_MOTION_DOT":3.99e-6,"MEAN_MOTION_DDOT":0},{"OBJECT_NAME":"ARIANE 40 R/B","OBJECT_ID":"1991-050F","EPOCH":"2026-03-30T13:14:40.360992","MEAN_MOTION":14.42908773,"ECCENTRICITY":0.00034496,"INCLINATION":98.1968,"RA_OF_ASC_NODE":141.0011,"ARG_OF_PERICENTER":33.5809,"MEAN_ANOMALY":326.56,"EPHEMERIS_TYPE":0,"CLASSIFICATION_TYPE":"U","NORAD_CAT_ID":21610,"ELEMENT_SET_NO":999,"REV_AT_EPOCH":82200,"BSTAR":0.00012341019,"MEAN_MOTION_DOT":3.71e-6,"MEAN_MOTION_DDOT":0},{"OBJECT_NAME":"INTERCOSMOS 25","OBJECT_ID":"1991-086A","EPOCH":"2026-03-30T13:00:25.665408","MEAN_MOTION":12.12070594,"ECCENTRICITY":0.14864633,"INCLINATION":82.6007,"RA_OF_ASC_NODE":297.4016,"ARG_OF_PERICENTER":72.0048,"MEAN_ANOMALY":303.7025,"EPHEMERIS_TYPE":0,"CLASSIFICATION_TYPE":"U","NORAD_CAT_ID":21819,"ELEMENT_SET_NO":999,"REV_AT_EPOCH":49921,"BSTAR":0.00042391759,"MEAN_MOTION_DOT":2.194e-5,"MEAN_MOTION_DDOT":0},{"OBJECT_NAME":"SL-8 R/B","OBJECT_ID":"1992-008B","EPOCH":"2026-03-30T14:15:14.325120","MEAN_MOTION":13.75969614,"ECCENTRICITY":0.00359147,"INCLINATION":82.9236,"RA_OF_ASC_NODE":252.2235,"ARG_OF_PERICENTER":76.9682,"MEAN_ANOMALY":355.6542,"EPHEMERIS_TYPE":0,"CLASSIFICATION_TYPE":"U","NORAD_CAT_ID":21876,"ELEMENT_SET_NO":999,"REV_AT_EPOCH":71229,"BSTAR":9.1364e-8,"MEAN_MOTION_DOT":1.6e-7,"MEAN_MOTION_DDOT":0},{"OBJECT_NAME":"SL-8 R/B","OBJECT_ID":"1992-020B","EPOCH":"2026-03-30T13:52:33.951072","MEAN_MOTION":13.75550514,"ECCENTRICITY":0.00278229,"INCLINATION":82.93,"RA_OF_ASC_NODE":138.2521,"ARG_OF_PERICENTER":237.7417,"MEAN_ANOMALY":231.8788,"EPHEMERIS_TYPE":0,"CLASSIFICATION_TYPE":"U","NORAD_CAT_ID":21938,"ELEMENT_SET_NO":999,"REV_AT_EPOCH":70400,"BSTAR":2.4142734e-5,"MEAN_MOTION_DOT":3.8e-7,"MEAN_MOTION_DDOT":0},{"OBJECT_NAME":"USA 81","OBJECT_ID":"1992-023A","EPOCH":"2026-03-30T13:06:32.988096","MEAN_MOTION":14.32374727,"ECCENTRICITY":0.00017071,"INCLINATION":85.0045,"RA_OF_ASC_NODE":119.4045,"ARG_OF_PERICENTER":68.2431,"MEAN_ANOMALY":291.8943,"EPHEMERIS_TYPE":0,"CLASSIFICATION_TYPE":"U","NORAD_CAT_ID":21949,"ELEMENT_SET_NO":999,"REV_AT_EPOCH":9777,"BSTAR":7.2329423e-5,"MEAN_MOTION_DOT":2.15e-6,"MEAN_MOTION_DDOT":0},{"OBJECT_NAME":"COSMOS 2219","OBJECT_ID":"1992-076A","EPOCH":"2026-03-30T09:19:45.325920","MEAN_MOTION":14.14090327,"ECCENTRICITY":0.00178406,"INCLINATION":71.0619,"RA_OF_ASC_NODE":334.8021,"ARG_OF_PERICENTER":176.4391,"MEAN_ANOMALY":183.6861,"EPHEMERIS_TYPE":0,"CLASSIFICATION_TYPE":"U","NORAD_CAT_ID":22219,"ELEMENT_SET_NO":999,"REV_AT_EPOCH":72130,"BSTAR":-8.9923543e-5,"MEAN_MOTION_DOT":-2.18e-6,"MEAN_MOTION_DDOT":0},{"OBJECT_NAME":"SL-16 R/B","OBJECT_ID":"1992-076B","EPOCH":"2026-03-30T12:45:11.975040","MEAN_MOTION":14.16863569,"ECCENTRICITY":0.0010745,"INCLINATION":70.9994,"RA_OF_ASC_NODE":144.4745,"ARG_OF_PERICENTER":57.4885,"MEAN_ANOMALY":44.0469,"EPHEMERIS_TYPE":0,"CLASSIFICATION_TYPE":"U","NORAD_CAT_ID":22220,"ELEMENT_SET_NO":999,"REV_AT_EPOCH":72478,"BSTAR":-6.4994115e-5,"MEAN_MOTION_DOT":-1.78e-6,"MEAN_MOTION_DDOT":0},{"OBJECT_NAME":"COSMOS 2221","OBJECT_ID":"1992-080A","EPOCH":"2026-03-30T13:40:07.864608","MEAN_MOTION":14.96289798,"ECCENTRICITY":0.00155434,"INCLINATION":82.5006,"RA_OF_ASC_NODE":259.0741,"ARG_OF_PERICENTER":120.1298,"MEAN_ANOMALY":240.1467,"EPHEMERIS_TYPE":0,"CLASSIFICATION_TYPE":"U","NORAD_CAT_ID":22236,"ELEMENT_SET_NO":999,"REV_AT_EPOCH":78391,"BSTAR":0.00024541388,"MEAN_MOTION_DOT":2.804e-5,"MEAN_MOTION_DDOT":0},{"OBJECT_NAME":"SL-16 R/B","OBJECT_ID":"1992-093B","EPOCH":"2026-03-30T14:05:31.356672","MEAN_MOTION":14.15455452,"ECCENTRICITY":0.00065327,"INCLINATION":71.0228,"RA_OF_ASC_NODE":320.399,"ARG_OF_PERICENTER":273.4776,"MEAN_ANOMALY":86.5599,"EPHEMERIS_TYPE":0,"CLASSIFICATION_TYPE":"U","NORAD_CAT_ID":22285,"ELEMENT_SET_NO":999,"REV_AT_EPOCH":71611,"BSTAR":9.3681843e-5,"MEAN_MOTION_DOT":1.35e-6,"MEAN_MOTION_DDOT":0},{"OBJECT_NAME":"COSMOS 2228","OBJECT_ID":"1992-094A","EPOCH":"2026-03-30T15:19:49.034208","MEAN_MOTION":14.9730155,"ECCENTRICITY":0.00169641,"INCLINATION":82.519,"RA_OF_ASC_NODE":217.2523,"ARG_OF_PERICENTER":228.4403,"MEAN_ANOMALY":131.5366,"EPHEMERIS_TYPE":0,"CLASSIFICATION_TYPE":"U","NORAD_CAT_ID":22286,"ELEMENT_SET_NO":999,"REV_AT_EPOCH":77919,"BSTAR":0.00034194287,"MEAN_MOTION_DOT":4.001e-5,"MEAN_MOTION_DDOT":0},{"OBJECT_NAME":"SL-16 R/B","OBJECT_ID":"1993-016B","EPOCH":"2026-03-30T13:24:57.820320","MEAN_MOTION":14.15305835,"ECCENTRICITY":0.00123467,"INCLINATION":71.0075,"RA_OF_ASC_NODE":171.3528,"ARG_OF_PERICENTER":287.2063,"MEAN_ANOMALY":72.7708,"EPHEMERIS_TYPE":0,"CLASSIFICATION_TYPE":"U","NORAD_CAT_ID":22566,"ELEMENT_SET_NO":999,"REV_AT_EPOCH":70512,"BSTAR":7.8508904e-5,"MEAN_MOTION_DOT":1.05e-6,"MEAN_MOTION_DDOT":0},{"OBJECT_NAME":"COSMOS 2242","OBJECT_ID":"1993-024A","EPOCH":"2026-03-30T11:54:41.704992","MEAN_MOTION":14.96639464,"ECCENTRICITY":0.00151777,"INCLINATION":82.5166,"RA_OF_ASC_NODE":246.809,"ARG_OF_PERICENTER":232.3282,"MEAN_ANOMALY":127.6564,"EPHEMERIS_TYPE":0,"CLASSIFICATION_TYPE":"U","NORAD_CAT_ID":22626,"ELEMENT_SET_NO":999,"REV_AT_EPOCH":78350,"BSTAR":0.00027250631,"MEAN_MOTION_DOT":3.138e-5,"MEAN_MOTION_DDOT":0}]
